{
  "type": "FeatureCollection",
  "features": [
    {
      "type": "Feature",
      "properties": {
        "norad_id": 64902,
        "name": "CO3D 2",
        "group": "resource",
        "lat": -62.09849754754983,
        "lon": -135.37510603527784,
        "alt_km": 513.0114524647915,
        "timestamp": "2025-12-08T13:49:31.451404+00:00",
        "meta_object_name": "CO3D 2",
        "meta_object_id": "2025-156D",
        "meta_epoch": "2025-12-08T00:07:18.506784",
        "meta_mean_motion": 15.20198287,
        "meta_eccentricity": 8.84e-05,
        "meta_inclination": 97.4345,
        "meta_ra_of_asc_node": 58.339,
        "meta_arg_of_pericenter": 87.6856,
        "meta_mean_anomaly": 272.448,
        "meta_ephemeris_type": 0,
        "meta_classification_type": "U",
        "meta_norad_cat_id": 64902,
        "meta_element_set_no": 999,
        "meta_rev_at_epoch": 2048,
        "meta_bstar": 2.6200131e-05,
        "meta_mean_motion_dot": 5e-06,
        "meta_mean_motion_ddot": 0,
        "tle_line1": "1 64902U 25156D   25342.00507531  .00000500  00000+0  26200-4 0  9995",
        "tle_line2": "2 64902  97.4345  58.3390 0000884  87.6856 272.4480 15.20198287 20487"
      },
      "geometry": {
        "type": "Point",
        "coordinates": [
          -135.37510603527784,
          -62.09849754754983
        ]
      }
    },
    {
      "type": "Feature",
      "properties": {
        "norad_id": 64903,
        "name": "CO3D 1",
        "group": "resource",
        "lat": -61.30611536210576,
        "lon": -134.90052112878874,
        "alt_km": 513.0351070546576,
        "timestamp": "2025-12-08T13:49:31.451415+00:00",
        "meta_object_name": "CO3D 1",
        "meta_object_id": "2025-156E",
        "meta_epoch": "2025-12-08T06:26:39.926688",
        "meta_mean_motion": 15.20192008,
        "meta_eccentricity": 9.943e-05,
        "meta_inclination": 97.4342,
        "meta_ra_of_asc_node": 58.598,
        "meta_arg_of_pericenter": 93.1226,
        "meta_mean_anomaly": 267.0123,
        "meta_ephemeris_type": 0,
        "meta_classification_type": "U",
        "meta_norad_cat_id": 64903,
        "meta_element_set_no": 999,
        "meta_rev_at_epoch": 2052,
        "meta_bstar": 0.00041627327,
        "meta_mean_motion_dot": 8.952e-05,
        "meta_mean_motion_ddot": 0,
        "tle_line1": "1 64903U 25156E   25342.26851767  .00008952  00000+0  41627-3 0  9995",
        "tle_line2": "2 64903  97.4342  58.5980 0000994  93.1226 267.0123 15.20192008 20521"
      },
      "geometry": {
        "type": "Point",
        "coordinates": [
          -134.90052112878874,
          -61.30611536210576
        ]
      }
    },
    {
      "type": "Feature",
      "properties": {
        "norad_id": 66514,
        "name": "SENTINEL-6B",
        "group": "resource",
        "lat": -35.155642647685355,
        "lon": 152.85187097622085,
        "alt_km": 1320.7371378153312,
        "timestamp": "2025-12-08T13:49:31.451426+00:00",
        "meta_object_name": "SENTINEL-6B",
        "meta_object_id": "2025-264A",
        "meta_epoch": "2025-12-08T06:33:03.191040",
        "meta_mean_motion": 12.84031978,
        "meta_eccentricity": 0.00210419,
        "meta_inclination": 66.0386,
        "meta_ra_of_asc_node": 171.7349,
        "meta_arg_of_pericenter": 268.4321,
        "meta_mean_anomaly": 91.4286,
        "meta_ephemeris_type": 0,
        "meta_classification_type": "U",
        "meta_norad_cat_id": 66514,
        "meta_element_set_no": 999,
        "meta_rev_at_epoch": 271,
        "meta_bstar": 0.0001272869,
        "meta_mean_motion_dot": -3.1e-07,
        "meta_mean_motion_ddot": 0,
        "tle_line1": "1 66514U 25264A   25342.27295360 -.00000031  00000+0  12729-3 0  9999",
        "tle_line2": "2 66514  66.0386 171.7349 0021041 268.4321  91.4286 12.84031978  2712"
      },
      "geometry": {
        "type": "Point",
        "coordinates": [
          152.85187097622085,
          -35.155642647685355
        ]
      }
    }
  ]
}